NORAD_CAT_ID,OBJECT_NAME,OBJECT_TYPE,EPOCH,MEAN_MOTION,ECCENTRICITY,INCLINATION,RA_OF_ASC_NODE,ARG_OF_PERICENTER,MEAN_ANOMALY,BSTAR,MEAN_MOTION_DOT,MEAN_MOTION_DDOT,TLE_LINE0,TLE_LINE1,TLE_LINE2,SEMIMAJOR_AXIS,PERIOD,APOGEE,PERIGEE,DECAYED
53841.0,STARLINK-4750,PAYLOAD,2022-11-29 22:00:00,15.45997462,0.0001267,53.217,264.2578,78.3124,165.8308,-0.025717,-0.01163808,0.0,0 STARLINK-4750,1 53841U 22114Z   22333.91667824 -.01163808  00000-0 -25717-1 0  9999,2 53841  53.2170 264.2578 0001267  78.3124 165.8308 15.45997462  1303,6806.5859999999975,93.144,429.31300000000016,427.588,0.0
53841.0,STARLINK-4750,PAYLOAD,2022-11-30 06:00:00,15.45166436,0.0001195,53.2175,262.6764,70.3041,229.5726,-0.025854,-0.01139155,0.0,0 STARLINK-4750,1 53841U 22114Z   22334.25001157 -.01139155  00000-0 -25854-1 0  9998,2 53841  53.2175 262.6764 0001195  70.3041 229.5726 15.45166436 11927,6809.026,93.194,431.705,430.077,0.0
53841.0,STARLINK-4750,PAYLOAD,2022-11-30 14:00:01,15.44354477,0.0001082,53.2175,261.0936,69.9409,284.7496,-0.026676,-0.01142715,0.0,0 STARLINK-4750,1 53841U 22114Z   22334.58335648 -.01142715  00000-0 -26676-1 0  9998,2 53841  53.2175 261.0936 0001082  69.9409 284.7496 15.44354477  1309,6811.4119999999975,93.243,434.014,432.54,0.0
53841.0,STARLINK-4750,PAYLOAD,2022-11-30 22:00:00,15.43542321,0.000118,53.2177,259.5154,64.9993,343.3965,-0.027484,-0.01144964,0.0,0 STARLINK-4750,1 53841U 22114Z   22334.91667824 -.01144964  00000-0 -27484-1 0  9995,2 53841  53.2177 259.5154 0001180  64.9993 343.3965 15.43542321 12038,6813.802,93.292,436.471,434.86300000000006,0.0
53841.0,STARLINK-4750,PAYLOAD,2022-12-01 14:00:01,15.4191158,0.0001248,53.2174,256.3629,88.8354,64.1697,-0.028877,-0.01138981,0.0,0 STARLINK-4750,1 53841U 22114Z   22335.58334491 -.01138981  00000-0 -28877-1 0  9999,2 53841  53.2174 256.3629 0001248  88.8354  64.1697 15.41911580  1301,6818.605,93.391,441.321,439.619,0.0
53841.0,STARLINK-4750,PAYLOAD,2022-12-01 22:00:00,15.41134625,0.0001226,53.2167,254.7906,86.9258,116.8978,-0.031071,-0.01189105,0.0,0 STARLINK-4750,1 53841U 22114Z   22335.91667824 -.01189105  00000-0 -31071-1 0  9999,2 53841  53.2167 254.7906 0001226  86.9258 116.8978 15.41134625 12183,6820.896,93.438,443.598,441.925,0.0
53841.0,STARLINK-4750,PAYLOAD,2022-12-02 14:00:01,15.39469145,0.0001144,53.217,251.65,86.3937,216.1893,-0.031266,-0.01136856,0.0,0 STARLINK-4750,1 53841U 22114Z   22336.58334491 -.01136856  00000-0 -31266-1 0  9995,2 53841  53.2170 251.6500 0001144  86.3937 216.1893 15.39469145  1307,6825.815,93.539,448.461,446.899,0.0
53841.0,STARLINK-4750,PAYLOAD,2022-12-02 16:00:00,15.39266509,0.0001116,53.2171,251.2572,79.0812,325.5696,-0.031532,-0.01138692,0.0,0 STARLINK-4750,1 53841U 22114Z   22336.66667824 -.01138692  00000-0 -31532-1 0  9999,2 53841  53.2171 251.2572 0001116  79.0812 325.5696 15.39266509 12300,6826.4140000000025,93.551,449.041,447.517,0.0
53841.0,STARLINK-4750,PAYLOAD,2022-12-02 22:00:00,15.38705521,0.0001102,53.2168,250.0829,98.2803,252.1804,-0.034123,-0.01203264,0.0,0 STARLINK-4750,1 53841U 22114Z   22336.91667824 -.01203264  00000-0 -34123-1 0  9994,2 53841  53.2168 250.0829 0001102  98.2803 252.1804 15.38705521  1301,6828.073,93.585,450.691,449.186,0.0
53841.0,STARLINK-4750,PAYLOAD,2022-12-03 14:00:01,15.37033407,0.0001244,53.2171,246.954,74.1839,9.1737,-0.034109,-0.01144251,0.0,0 STARLINK-4750,1 53841U 22114Z   22337.58334491 -.01144251  00000-0 -34109-1 0  9993,2 53841  53.2171 246.9540 0001244  74.1839   9.1737 15.37033407 12446,6833.024,93.687,455.739,454.039,0.0
53841.0,STARLINK-4750,PAYLOAD,2022-12-03 22:00:00,15.36242482,0.000129,53.2168,245.3929,90.3636,37.9528,-0.036045,-0.01175505,0.0,0 STARLINK-4750,1 53841U 22114Z   22337.91667824 -.01175505  00000-0 -36045-1 0  9996,2 53841  53.2168 245.3929 0001290  90.3636  37.9528 15.36242482  1306,6835.369000000002,93.735,458.116,456.353,0.0
53841.0,STARLINK-4750,PAYLOAD,2022-12-04 14:00:01,15.34587117,0.0001305,53.2172,242.275,88.4208,126.9159,-0.036643,-0.01136583,0.0,0 STARLINK-4750,1 53841U 22114Z   22338.58334491 -.01136583  00000-0 -36643-1 0  9998,2 53841  53.2172 242.2750 0001305  88.4208 126.9159 15.34587117  1303,6840.284000000002,93.836,463.042,461.256,0.0
53841.0,STARLINK-4750,PAYLOAD,2022-12-04 22:00:00,15.33802541,0.0001414,53.2169,240.7203,106.4739,150.8841,-0.038995,-0.01175774,0.0,0 STARLINK-4750,1 53841U 22114Z   22338.91667824 -.01175774  00000-0 -38995-1 0  9991,2 53841  53.2169 240.7203 0001414 106.4739 150.8841 15.33802541  1300,6842.6169999999975,93.884,465.449,463.514,0.0
53841.0,STARLINK-4750,PAYLOAD,2022-12-05 14:00:01,15.32156035,0.0001157,53.2171,237.6142,77.3471,261.2235,-0.040086,-0.01149585,0.0,0 STARLINK-4750,1 53841U 22114Z   22339.58335648 -.01149585  00000-0 -40086-1 0  9996,2 53841  53.2171 237.6142 0001157  77.3471 261.2235 15.32156035  1306,6847.518,93.985,470.175,468.591,0.0
53841.0,STARLINK-4750,PAYLOAD,2022-12-05 16:00:00,15.31944348,0.0001247,53.2173,237.2259,71.3305,7.0485,-0.039962,-0.01139393,0.0,0 STARLINK-4750,1 53841U 22114Z   22339.66667824 -.01139393  00000-0 -39962-1 0  9996,2 53841  53.2173 237.2259 0001247  71.3305   7.0485 15.31944348 12769,6848.149,93.998,470.86800000000005,469.16,0.0
53841.0,STARLINK-4750,PAYLOAD,2022-12-05 22:00:01,15.3133361,0.000119,53.2175,236.0648,69.3973,308.2804,-0.040696,-0.0113833,0.0,0 STARLINK-4750,1 53841U 22114Z   22339.91668981 -.01138330  00000-0 -40696-1 0  9995,2 53841  53.2175 236.0648 0001190  69.3973 308.2804 15.31333610  1308,6849.969,94.036,472.65,471.019,0.0
53841.0,STARLINK-4750,PAYLOAD,2022-12-06 14:00:01,15.297212,0.0001298,53.2171,232.9701,70.5834,22.3593,-0.043633,-0.0115859,0.0,0 STARLINK-4750,1 53841U 22114Z   22340.58335648 -.01158590  00000-0 -43633-1 0  9995,2 53841  53.2171 232.9701 0001298  70.5834  22.3593 15.29721200  1300,6854.781999999997,94.135,477.537,475.757,0.0
53841.0,STARLINK-4750,PAYLOAD,2022-12-06 16:00:00,15.29504626,0.0001358,53.2172,232.5836,76.7853,115.2345,-0.043199,-0.01141066,0.0,0 STARLINK-4750,1 53841U 22114Z   22340.66667824 -.01141066  00000-0 -43199-1 0  9995,2 53841  53.2172 232.5836 0001358  76.7853 115.2345 15.29504626 12919,6855.429,94.148,478.225,476.36300000000006,0.0
53841.0,STARLINK-4750,PAYLOAD,2022-12-06 22:00:00,15.28922891,0.0001373,53.2172,231.4269,89.9313,39.1079,-0.045539,-0.01193912,0.0,0 STARLINK-4750,1 53841U 22114Z   22340.91667824 -.01193912  00000-0 -45539-1 0  9990,2 53841  53.2172 231.4269 0001373  89.9313  39.1079 15.28922891  1307,6857.168000000002,94.184,479.974,478.091,0.0
53841.0,STARLINK-4750,PAYLOAD,2022-12-07 14:00:01,15.26786181,0.0001652,53.2174,228.3421,64.3198,134.4068,-0.019781,-0.00494262,0.0,0 STARLINK-4750,1 53841U 22114Z   22341.58334491 -.00494262  00000-0 -19781-1 0  9996,2 53841  53.2174 228.3421 0001652  64.3198 134.4068 15.26786181 13052,6863.564,94.316,486.56300000000016,484.295,0.0
53841.0,STARLINK-4750,PAYLOAD,2022-12-08 00:00:00,15.26143278,0.0001248,53.2179,226.4214,64.2582,265.6408,-0.040959,-0.00988325,0.0,0 STARLINK-4750,1 53841U 22114Z   22342.00001157 -.00988325  00000-0 -40959-1 0  9993,2 53841  53.2179 226.4214 0001248  64.2582 265.6408 15.26143278 13119,6865.4919999999975,94.355,488.213,486.5,0.0
53841.0,STARLINK-4750,PAYLOAD,2022-12-08 14:00:01,15.24754973,0.0001465,53.2169,223.734,46.6912,248.5755,-0.04524,-0.01042057,0.0,0 STARLINK-4750,1 53841U 22114Z   22342.58334491 -.01042057  00000-0 -45240-1 0  9998,2 53841  53.2169 223.7340 0001465  46.6912 248.5755 15.24754973  1301,6869.658,94.441,492.53,490.517,0.0
53841.0,STARLINK-4750,PAYLOAD,2022-12-08 22:00:01,15.24008014,0.0001569,53.2174,222.2023,44.4216,281.1786,-0.050759,-0.01149497,0.0,0 STARLINK-4750,1 53841U 22114Z   22342.91668981 -.01149497  00000-0 -50759-1 0  9996,2 53841  53.2174 222.2023 0001569  44.4216 281.1786 15.24008014  1302,6871.903,94.488,494.846,492.69,0.0
53841.0,STARLINK-4750,PAYLOAD,2022-12-09 00:00:00,15.23807517,0.0001462,53.2173,221.82,57.8322,5.1262,-0.05133,-0.01154987,0.0,0 STARLINK-4750,1 53841U 22114Z   22343.00001157 -.01154987  00000-0 -51330-1 0  9999,2 53841  53.2173 221.8200 0001462  57.8322   5.1262 15.23807517 13277,6872.505999999999,94.5,495.375,493.366,0.0
53841.0,STARLINK-4750,PAYLOAD,2022-12-09 14:00:01,15.22395844,0.0001409,53.2165,219.1417,48.3566,334.8435,-0.054299,-0.01170126,0.0,0 STARLINK-4750,1 53841U 22114Z   22343.58334491 -.01170126  00000-0 -54299-1 0  9992,2 53841  53.2165 219.1417 0001409  48.3566 334.8435 15.22395844  1303,6876.753000000002,94.588,499.587,497.649,0.0
53841.0,STARLINK-4750,PAYLOAD,2022-12-10 00:00:00,15.21364114,0.0001585999999999,53.2173,217.235,60.3901,86.8748,-0.054985,-0.0115087,0.0,0 STARLINK-4750,1 53841U 22114Z   22344.00001157 -.01150870  00000-0 -54985-1 0  9996,2 53841  53.2173 217.2350 0001586  60.3901  86.8748 15.21364114 13422,6879.861999999999,94.652,502.818,500.636,0.0
53841.0,STARLINK-4750,PAYLOAD,2022-12-10 14:00:01,15.19938728,0.0001426999999999,53.2174,214.5659,60.3502,42.0309,-0.057219,-0.01148615,0.0,0 STARLINK-4750,1 53841U 22114Z   22344.58334491 -.01148615  00000-0 -57219-1 0  9996,2 53841  53.2174 214.5659 0001427  60.3502  42.0309 15.19938728  1302,6884.163000000001,94.741,507.01,505.045,0.0
53841.0,STARLINK-4750,PAYLOAD,2022-12-11 00:00:00,15.1892114,0.00017,53.2176,212.6668,51.6767,171.0939,-0.058857,-0.01147086,0.0,0 STARLINK-4750,1 53841U 22114Z   22345.00001157 -.01147086  00000-0 -58857-1 0  9994,2 53841  53.2176 212.6668 0001700  51.6767 171.0939 15.18921140 13576,6887.236999999999,94.804,510.273,507.931,0.0
53841.0,STARLINK-4750,PAYLOAD,2022-12-11 14:00:01,15.17498189,0.0001494,53.2174,210.008,67.1271,105.6251,-0.061468,-0.01149314,0.0,0 STARLINK-4750,1 53841U 22114Z   22345.58334491 -.01149314  00000-0 -61468-1 0  9995,2 53841  53.2174 210.0080 0001494  67.1271 105.6251 15.17498189  1305,6891.542,94.893,514.436,512.377,0.0
